STARLINK-30344          
1 57737U 23131F   25222.34791162 -.00000984  00000+0 -57780-4 0  9998
2 57737  43.0024 240.1029 0001323 281.5400  78.5293 15.02529166108135
STARLINK-30351          
1 57738U 23131G   25222.50195488  .00000271  00000+0  35112-4 0  9998
2 57738  43.0030 239.5361 0001455 275.1809  84.8867 15.02534698108157
STARLINK-30242          
1 57739U 23131H   25222.24990291 -.00001475  00000+0 -94138-4 0  9997
2 57739  43.0040 215.3330 0001432 261.2155  98.8526 15.02529070108416
STARLINK-30331          
1 57740U 23131J   25222.41939845  .00000598  00000+0  31283-4 0  9991
2 57740  43.0053 212.5377 0001896 269.0623  91.0012 15.27564017108469
STARLINK-30364          
1 57741U 23131K   25222.41882215 -.00000113  00000+0  66759-5 0  9991
2 57741  43.0023 239.7715 0001303 282.1341  77.9355 15.02536493108148
STARLINK-30308          
1 57742U 23131L   25222.36567154 -.00000027  00000+0  13073-4 0  9992
2 57742  43.0024 240.2321 0001675 319.2440  40.8276 15.02544796108140
STARLINK-30361          
1 57743U 23131M   25222.41550343  .00001130  00000+0  98740-4 0  9990
2 57743  43.0024 239.7464 0001363 278.5415  81.5273 15.02529253108145
STARLINK-30363          
1 57744U 23131N   25222.37149356  .00000461  00000+0  49196-4 0  9991
2 57744  43.0043 227.4980 0001968 271.3430  88.7187 15.02539848108282
STARLINK-30362          
1 57745U 23131P   25222.41216263 -.00000150  00000+0  39539-5 0  9996
2 57745  43.0026 239.7200 0001256 279.7366  80.3334 15.02537125108148
STARLINK-30350          
1 57746U 23131Q   25222.50860635  .00001078  00000+0  94888-4 0  9991
2 57746  43.0025 239.5666 0001497 276.4123  83.6548 15.02540547108150
STARLINK-30307          
1 57747U 23131R   25222.54622693  .00000483  00000+0  50826-4 0  9999
2 57747  43.0031 239.0048 0001293 278.3497  81.7198 15.02537570108169
STARLINK-30356          
1 57748U 23131S   25221.40833544  .00000318  00000+0  38626-4 0  9994
2 57748  43.0029 245.0871 0001366 277.8422  82.2265 15.02536908107996
STARLINK-30366          
1 57749U 23131T   25222.38552684  .00000150  00000+0  26151-4 0  9990
2 57749  43.0029 239.5169 0001356 273.6793  86.3895 15.02534584108149
STARLINK-30357          
1 57750U 23131U   25222.46198897  .00000730  00000+0  69091-4 0  9997
2 57750  43.0030 239.2310 0001295 277.5239  82.5456 15.02538979108152
STARLINK-30370          
1 57751U 23131V   25222.30169736  .00000650  00000+0  63191-4 0  9997
2 57751  43.0026 227.8691 0001273 284.6233  75.4468 15.02537768108274
STARLINK-30368          
1 57752U 23131W   25222.55510211  .00000665  00000+0  64273-4 0  9991
2 57752  43.0023 239.0398 0001295 279.8165  80.2531 15.02537905108161
STARLINK-30343          
1 57753U 23131X   25222.46531957  .00000667  00000+0  64425-4 0  9993
2 57753  43.0022 239.2577 0001311 282.4595  77.6100 15.02538608108150
