[{"OBJECT_NAME":"STARLINK-30344","OBJECT_ID":"2023-131F","EPOCH":"2025-08-10T08:20:59.563968","MEAN_MOTION":15.02529166,"ECCENTRICITY":0.0001323,"INCLINATION":43.0024,"RA_OF_ASC_NODE":240.1029,"ARG_OF_PERICENTER":281.54,"MEAN_ANOMALY":78.5293,"EPHEMERIS_TYPE":0,"CLASSIFICATION_TYPE":"U","NORAD_CAT_ID":57737,"ELEMENT_SET_NO":999,"REV_AT_EPOCH":10813,"BSTAR":-5.778e-5,"MEAN_MOTION_DOT":-9.84e-6,"MEAN_MOTION_DDOT":0},{"OBJECT_NAME":"STARLINK-30351","OBJECT_ID":"2023-131G","EPOCH":"2025-08-10T12:02:48.901632","MEAN_MOTION":15.02534698,"ECCENTRICITY":0.0001455,"INCLINATION":43.003,"RA_OF_ASC_NODE":239.5361,"ARG_OF_PERICENTER":275.1809,"MEAN_ANOMALY":84.8867,"EPHEMERIS_TYPE":0,"CLASSIFICATION_TYPE":"U","NORAD_CAT_ID":57738,"ELEMENT_SET_NO":999,"REV_AT_EPOCH":10815,"BSTAR":3.5112e-5,"MEAN_MOTION_DOT":2.71e-6,"MEAN_MOTION_DDOT":0},{"OBJECT_NAME":"STARLINK-30242","OBJECT_ID":"2023-131H","EPOCH":"2025-08-10T05:59:51.611424","MEAN_MOTION":15.0252907,"ECCENTRICITY":0.0001432,"INCLINATION":43.004,"RA_OF_ASC_NODE":215.333,"ARG_OF_PERICENTER":261.2155,"MEAN_ANOMALY":98.8526,"EPHEMERIS_TYPE":0,"CLASSIFICATION_TYPE":"U","NORAD_CAT_ID":57739,"ELEMENT_SET_NO":999,"REV_AT_EPOCH":10841,"BSTAR":-9.4138e-5,"MEAN_MOTION_DOT":-1.475e-5,"MEAN_MOTION_DDOT":0},{"OBJECT_NAME":"STARLINK-30331","OBJECT_ID":"2023-131J","EPOCH":"2025-08-10T10:03:56.026080","MEAN_MOTION":15.27564017,"ECCENTRICITY":0.0001896,"INCLINATION":43.0053,"RA_OF_ASC_NODE":212.5377,"ARG_OF_PERICENTER":269.0623,"MEAN_ANOMALY":91.0012,"EPHEMERIS_TYPE":0,"CLASSIFICATION_TYPE":"U","NORAD_CAT_ID":57740,"ELEMENT_SET_NO":999,"REV_AT_EPOCH":10846,"BSTAR":3.1283e-5,"MEAN_MOTION_DOT":5.98e-6,"MEAN_MOTION_DDOT":0},{"OBJECT_NAME":"STARLINK-30364","OBJECT_ID":"2023-131K","EPOCH":"2025-08-10T10:03:06.233760","MEAN_MOTION":15.02536493,"ECCENTRICITY":0.0001303,"INCLINATION":43.0023,"RA_OF_ASC_NODE":239.7715,"ARG_OF_PERICENTER":282.1341,"MEAN_ANOMALY":77.9355,"EPHEMERIS_TYPE":0,"CLASSIFICATION_TYPE":"U","NORAD_CAT_ID":57741,"ELEMENT_SET_NO":999,"REV_AT_EPOCH":10814,"BSTAR":6.6759e-6,"MEAN_MOTION_DOT":-1.13e-6,"MEAN_MOTION_DDOT":0},{"OBJECT_NAME":"STARLINK-30308","OBJECT_ID":"2023-131L","EPOCH":"2025-08-10T08:46:34.021056","MEAN_MOTION":15.02544796,"ECCENTRICITY":0.0001675,"INCLINATION":43.0024,"RA_OF_ASC_NODE":240.2321,"ARG_OF_PERICENTER":319.244,"MEAN_ANOMALY":40.8276,"EPHEMERIS_TYPE":0,"CLASSIFICATION_TYPE":"U","NORAD_CAT_ID":57742,"ELEMENT_SET_NO":999,"REV_AT_EPOCH":10814,"BSTAR":1.3073e-5,"MEAN_MOTION_DOT":-2.7e-7,"MEAN_MOTION_DDOT":0},{"OBJECT_NAME":"STARLINK-30361","OBJECT_ID":"2023-131M","EPOCH":"2025-08-10T09:58:19.496352","MEAN_MOTION":15.02529253,"ECCENTRICITY":0.0001363,"INCLINATION":43.0024,"RA_OF_ASC_NODE":239.7464,"ARG_OF_PERICENTER":278.5415,"MEAN_ANOMALY":81.5273,"EPHEMERIS_TYPE":0,"CLASSIFICATION_TYPE":"U","NORAD_CAT_ID":57743,"ELEMENT_SET_NO":999,"REV_AT_EPOCH":10814,"BSTAR":9.874e-5,"MEAN_MOTION_DOT":1.13e-5,"MEAN_MOTION_DDOT":0},{"OBJECT_NAME":"STARLINK-30363","OBJECT_ID":"2023-131N","EPOCH":"2025-08-10T08:54:57.043584","MEAN_MOTION":15.02539848,"ECCENTRICITY":0.0001968,"INCLINATION":43.0043,"RA_OF_ASC_NODE":227.498,"ARG_OF_PERICENTER":271.343,"MEAN_ANOMALY":88.7187,"EPHEMERIS_TYPE":0,"CLASSIFICATION_TYPE":"U","NORAD_CAT_ID":57744,"ELEMENT_SET_NO":999,"REV_AT_EPOCH":10828,"BSTAR":4.9196e-5,"MEAN_MOTION_DOT":4.61e-6,"MEAN_MOTION_DDOT":0},{"OBJECT_NAME":"STARLINK-30362","OBJECT_ID":"2023-131P","EPOCH":"2025-08-10T09:53:30.851232","MEAN_MOTION":15.02537125,"ECCENTRICITY":0.0001256,"INCLINATION":43.0026,"RA_OF_ASC_NODE":239.72,"ARG_OF_PERICENTER":279.7366,"MEAN_ANOMALY":80.3334,"EPHEMERIS_TYPE":0,"CLASSIFICATION_TYPE":"U","NORAD_CAT_ID":57745,"ELEMENT_SET_NO":999,"REV_AT_EPOCH":10814,"BSTAR":3.9539e-6,"MEAN_MOTION_DOT":-1.5e-6,"MEAN_MOTION_DDOT":0},{"OBJECT_NAME":"STARLINK-30350","OBJECT_ID":"2023-131Q","EPOCH":"2025-08-10T12:12:23.588640","MEAN_MOTION":15.02540547,"ECCENTRICITY":0.0001497,"INCLINATION":43.0025,"RA_OF_ASC_NODE":239.5666,"ARG_OF_PERICENTER":276.4123,"MEAN_ANOMALY":83.6548,"EPHEMERIS_TYPE":0,"CLASSIFICATION_TYPE":"U","NORAD_CAT_ID":57746,"ELEMENT_SET_NO":999,"REV_AT_EPOCH":10815,"BSTAR":9.4888e-5,"MEAN_MOTION_DOT":1.078e-5,"MEAN_MOTION_DDOT":0},{"OBJECT_NAME":"STARLINK-30307","OBJECT_ID":"2023-131R","EPOCH":"2025-08-10T13:06:34.006752","MEAN_MOTION":15.0253757,"ECCENTRICITY":0.0001293,"INCLINATION":43.0031,"RA_OF_ASC_NODE":239.0048,"ARG_OF_PERICENTER":278.3497,"MEAN_ANOMALY":81.7198,"EPHEMERIS_TYPE":0,"CLASSIFICATION_TYPE":"U","NORAD_CAT_ID":57747,"ELEMENT_SET_NO":999,"REV_AT_EPOCH":10816,"BSTAR":5.0826e-5,"MEAN_MOTION_DOT":4.83e-6,"MEAN_MOTION_DDOT":0},{"OBJECT_NAME":"STARLINK-30356","OBJECT_ID":"2023-131S","EPOCH":"2025-08-09T09:48:00.182016","MEAN_MOTION":15.02536908,"ECCENTRICITY":0.0001366,"INCLINATION":43.0029,"RA_OF_ASC_NODE":245.0871,"ARG_OF_PERICENTER":277.8422,"MEAN_ANOMALY":82.2265,"EPHEMERIS_TYPE":0,"CLASSIFICATION_TYPE":"U","NORAD_CAT_ID":57748,"ELEMENT_SET_NO":999,"REV_AT_EPOCH":10799,"BSTAR":3.8626e-5,"MEAN_MOTION_DOT":3.18e-6,"MEAN_MOTION_DDOT":0},{"OBJECT_NAME":"STARLINK-30366","OBJECT_ID":"2023-131T","EPOCH":"2025-08-10T09:15:09.518976","MEAN_MOTION":15.02534584,"ECCENTRICITY":0.0001356,"INCLINATION":43.0029,"RA_OF_ASC_NODE":239.5169,"ARG_OF_PERICENTER":273.6793,"MEAN_ANOMALY":86.3895,"EPHEMERIS_TYPE":0,"CLASSIFICATION_TYPE":"U","NORAD_CAT_ID":57749,"ELEMENT_SET_NO":999,"REV_AT_EPOCH":10814,"BSTAR":2.6151e-5,"MEAN_MOTION_DOT":1.5e-6,"MEAN_MOTION_DDOT":0},{"OBJECT_NAME":"STARLINK-30357","OBJECT_ID":"2023-131U","EPOCH":"2025-08-10T11:05:15.847008","MEAN_MOTION":15.02538979,"ECCENTRICITY":0.0001295,"INCLINATION":43.003,"RA_OF_ASC_NODE":239.231,"ARG_OF_PERICENTER":277.5239,"MEAN_ANOMALY":82.5456,"EPHEMERIS_TYPE":0,"CLASSIFICATION_TYPE":"U","NORAD_CAT_ID":57750,"ELEMENT_SET_NO":999,"REV_AT_EPOCH":10815,"BSTAR":6.9091e-5,"MEAN_MOTION_DOT":7.3e-6,"MEAN_MOTION_DDOT":0},{"OBJECT_NAME":"STARLINK-30370","OBJECT_ID":"2023-131V","EPOCH":"2025-08-10T07:14:26.651904","MEAN_MOTION":15.02537768,"ECCENTRICITY":0.0001273,"INCLINATION":43.0026,"RA_OF_ASC_NODE":227.8691,"ARG_OF_PERICENTER":284.6233,"MEAN_ANOMALY":75.4468,"EPHEMERIS_TYPE":0,"CLASSIFICATION_TYPE":"U","NORAD_CAT_ID":57751,"ELEMENT_SET_NO":999,"REV_AT_EPOCH":10827,"BSTAR":6.3191e-5,"MEAN_MOTION_DOT":6.5e-6,"MEAN_MOTION_DDOT":0},{"OBJECT_NAME":"STARLINK-30368","OBJECT_ID":"2023-131W","EPOCH":"2025-08-10T13:19:20.822304","MEAN_MOTION":15.02537905,"ECCENTRICITY":0.0001295,"INCLINATION":43.0023,"RA_OF_ASC_NODE":239.0398,"ARG_OF_PERICENTER":279.8165,"MEAN_ANOMALY":80.2531,"EPHEMERIS_TYPE":0,"CLASSIFICATION_TYPE":"U","NORAD_CAT_ID":57752,"ELEMENT_SET_NO":999,"REV_AT_EPOCH":10816,"BSTAR":6.4273e-5,"MEAN_MOTION_DOT":6.65e-6,"MEAN_MOTION_DDOT":0},{"OBJECT_NAME":"STARLINK-30343","OBJECT_ID":"2023-131X","EPOCH":"2025-08-10T11:10:03.610848","MEAN_MOTION":15.02538608,"ECCENTRICITY":0.0001311,"INCLINATION":43.0022,"RA_OF_ASC_NODE":239.2577,"ARG_OF_PERICENTER":282.4595,"MEAN_ANOMALY":77.61,"EPHEMERIS_TYPE":0,"CLASSIFICATION_TYPE":"U","NORAD_CAT_ID":57753,"ELEMENT_SET_NO":999,"REV_AT_EPOCH":10815,"BSTAR":6.4425e-5,"MEAN_MOTION_DOT":6.67e-6,"MEAN_MOTION_DDOT":0}]
